1 11687U 001687A  05068.92914352  0.00000000  00000-0 4.73618e-03 0  16871687
2 11687   8.0200  61.3500 0013000 228.9100 -108.4688  0.99412339 01687 1687
1 11688U 001688A  05068.91478009  0.00000000  00000-0 7.68155e-03 0  16881688
2 11688  82.9700 332.7300 0024000 241.0000 -85.0859 13.22611090 01688 1688
1 11689U 001689A  05068.91550926  0.00000000  00000-0 4.43327e-02 0  16891689
2 11689  66.0700 130.7000 0064000 317.4000  69.5211 14.10382528 01689 1689
1 11690U 001690A  05068.91621528  0.00000000  00000-0 3.57604e-03 0  16901690
2 11690  73.9200 337.5100 0145000 358.4200 156.9090 12.30749363 01690 1690
1 11691U 001691A  05068.9140625  0.00000000  00000-0 1.40563e-03 0  16911691
2 11691  82.5100 334.0500 0079000 297.5100 -140.2657 12.10619355 01691 1691
1 11692U 001692A  05068.91478009  0.00000000  00000-0 4.69332e-02 0  16921692
2 11692  73.9200 337.5100 0145000 358.4200 156.6523 12.30749363 01692 1692
1 11693U 001693A  05068.91550926  0.00000000  00000-0 1.70319e-02 0  16931693
2 11693  82.5300 328.9400 0036000 176.7500 -22.2829 14.22514050 01693 1693
1 11694U 001694A  05068.90924769  0.00000000  00000-0 1.99987e-02 0  16941694
2 11694  82.2500 143.1500 0074000 212.9300 172.2568 14.08367648 01694 1694
1 11695U 001695A  05068.90976852  0.00000000  00000-0 4.53442e-04 0  16951695
2 11695   6.2500  70.9000 0020000 203.4900 -92.1710  1.00134364 01695 1695
1 11696U 001696A  05068.91550926  0.00000000  00000-0 1.13515e-02 0  16961696
2 11696 102.3700 167.1300 0127000 149.6400 -125.4149 12.27448542 01696 1696
1 11697U 001697A  05068.91621528  0.00000000  00000-0 1.97930e-02 0  16971697
2 11697  64.4400 345.8900 0397000 329.4100 -177.2306 15.24607929 01697 1697
1 11698U 001698A  05068.91694444  0.00000000  00000-0 6.28241e-03 0  16981698
2 11698   5.5700  74.6400 0296000 340.7800 123.7786  1.00918151 01698 1698
1 11699U 001699A  05068.92239583  0.00000000  00000-0 3.94671e-02 0  16991699
2 11699 102.3700 164.4000 0063000 358.0400  25.0521 12.29724993 01699 1699
1 11700U 001700A  05068.92267361  0.00000000  00000-0 3.52102e-02 0  17001700
2 11700 102.4600 164.7300 0180000 348.6200  33.8105 12.29911136 01700 1700
1 11701U 001701A  05068.92340278  0.00000000  00000-0 2.65451e-03 0  17011701
2 11701   6.2500  70.9000 0020000 203.4900 -92.2510  1.00134364 01701 1701
1 11702U 001702A  05068.92195602  0.00000000  00000-0 8.74738e-02 0  17021702
2 11702 102.3700 167.1300 0127000 149.6400 -125.2017 12.27448542 01702 1702
1 11703U 001703A  05068.92267361  0.00000000  00000-0 9.03684e-03 0  17031703
2 11703  64.4400 345.8900 0397000 329.4100 -177.3604 15.24607929 01703 1703
1 11704U 001704A  05068.92616898  0.00000000  00000-0 3.01767e-02 0  17041704
2 11704 102.3700 164.4000 0063000 358.0400  25.2400 12.29724993 01704 1704
1 11705U 001705A  05068.92626157  0.00000000  00000-0 5.21386e-03 0  17051705
2 11705 102.4600 164.7300 0180000 348.6200  33.9755 12.29911136 01705 1705
1 11706U 001706A  05068.91484954  0.00000000  00000-0 8.52797e-03 0  17061706
2 11706  66.0500 177.3000 6198000 146.9900 -69.1482  2.03405208 01706 1706
1 11707U 001707A  05068.91550926  0.00000000  00000-0 1.69426e-03 0  17071707
2 11707  64.3600 212.7200 0014000 322.8600  44.6771  2.13490117 01707 1707
1 11708U 001708A  05068.91621528  0.00000000  00000-0 1.88474e-04 0  17081708
2 11708   7.2800  66.6700 0155000 193.7100 -46.4455  0.99850318 01708 1708
1 11709U 001709A  05068.91694444  0.00000000  00000-0 4.94069e-03 0  17091709
2 11709  57.0000  53.3000 3549000 317.3400 -127.7026  7.83118212 01709 1709
1 11710U 001710A  05068.92118056  0.00000000  00000-0 1.60284e-02 0  17101710
2 11710  70.0400 238.6800 0043000 311.0100  75.3526 14.60251201 01710 1710
1 11711U 001711A  05068.92125  0.00000000  00000-0 1.81436e-02 0  17111711
2 11711  82.9000  70.8700 0048000 311.0500 -155.8159 14.43680784 01711 1711
1 11712U 001712A  05068.92195602  0.00000000  00000-0 1.14793e-03 0  17121712
2 11712  54.5400 210.8200 3745000 261.6300  62.6522  1.98487877 01712 1712
1 11713U 001713A  05068.92267361  0.00000000  00000-0 4.94367e-03 0  17131713
2 11713   7.5600  66.4700 0284000 216.2700 -67.3465  0.97787740 01713 1713
1 11714U 001714A  05068.92483796  0.00000000  00000-0 7.96115e-03 0  17141714
2 11714  56.9300  54.1400 3324000 326.4300 -146.3897  8.30284188 01714 1714
1 11715U 001715A  05068.92555556  0.00000000  00000-0 2.09276e-02 0  17151715
2 11715  32.4400 199.0500 0102000 176.3500 -126.2950 13.61302297 01715 1715
1 11716U 001716A  05068.91344907  0.00000000  00000-0 5.57205e-02 0  17161716
2 11716  66.2900  58.9800 1706000   4.7000 146.2907 10.76807051 01716 1716
1 11717U 001717A  05068.9140625  0.00000000  00000-0 2.05118e-03 0  17171717
2 11717   7.4300 114.3900 6155000 266.2400 -129.2446  3.86358167 01717 1717
1 11718U 001718A  05068.91127315  0.00000000  00000-0 1.31611e-02 0  17181718
2 11718  70.0400 238.6800 0043000 311.0100  75.4824 14.60251201 01718 1718
1 11719U 001719A  05068.91190972  0.00000000  00000-0 5.02968e-03 0  17191719
2 11719  82.9000  70.8700 0048000 311.0500 -155.9067 14.43680784 01719 1719
1 11720U 001720A  05068.91262731  0.00000000  00000-0 2.23459e-02 0  17201720
2 11720  81.7700  74.6600 0064000  83.9400  68.8640 15.42082867 01720 1720
1 11721U 001721A  05068.92626157  0.00000000  00000-0 4.14982e-02 0  17211721
2 11721  70.9900 234.1700 0129000 342.9600  42.4798 14.18431270 01721 1721
1 11722U 001722A  05068.92699074  0.00000000  00000-0 3.32328e-02 0  17221722
2 11722  90.3100 240.2600 0041000  30.6100  -7.1909 12.97051878 01722 1722
1 11723U 001723A  05068.92770833  0.00000000  00000-0 4.11363e-02 0  17231723
2 11723  62.2800 227.6500 0773000 256.9600 120.9637 12.73069098 01723 1723
1 11724U 001724A  05068.90832176  0.00000000  00000-0 2.97548e-03 0  17241724
2 11724   9.0800  52.0000 0001000 178.4800 -18.6963  0.99753694 01724 1724
1 11725U 001725A  05068.90905093  0.00000000  00000-0 1.37005e-04 0  17251725
2 11725   4.3000  78.0500 0124000 182.9500 -46.5966  1.07868431 01725 1725
1 11726U 001726A  05068.90976852  0.00000000  00000-0 3.35092e-02 0  17261726
2 11726  74.0000 236.6700 0032000 214.9500 167.8330 12.45288736 01726 1726
1 11727U 001727A  05069.21762731  0.00000000  00000-0 1.36428e-03 0  17271727
2 11727  28.4600 110.8500 4827000 184.4600 -19.2093  5.92058740 01727 1727
1 11728U 001728A  05069.21797454  0.00000000  00000-0 4.79789e-03 0  17281728
2 11728  82.9400 241.6400 0068000 283.3300  99.8133 13.75199499 01728 1728
1 11729U 001729A  05069.21869213  0.00000000  00000-0 5.61793e-03 0  17291729
2 11729  65.0500 233.0100 0039000 162.5200 -135.6990 13.90019355 01729 1729
1 11730U 001730A  05069.2194213  0.00000000  00000-0 4.99259e-03 0  17301730
2 11730  98.8000 250.1200 0164000 235.6700 147.1170 13.83566781 01730 1730
1 11731U 001731A  05069.23006944  0.00000000  00000-0 7.53708e-03 0  17311731
2 11731   8.2200 115.4000 5822000 325.3200  76.5944  4.22348244 01731 1731
1 11732U 001732A  05069.23077546  0.00000000  00000-0 1.55845e-02 0  17321732
2 11732   3.4600 119.6100 7091000 297.2900  94.3413  2.23215548 01732 1732
1 11733U 001733A  05069.23150463  0.00000000  00000-0 1.51420e-03 0  17331733
2 11733   4.2700  77.8400 0127000 172.5300 -36.6305  1.08557790 01733 1733
1 11734U 001734A  05069.24930556  0.00000000  00000-0 2.79136e-02 0  17341734
2 11734  56.9300  54.1400 3324000 326.4300 -144.0143  8.30284188 01734 1734
1 11735U 001735A  05069.25001157  0.00000000  00000-0 1.04746e-02 0  17351735
2 11735  69.5400  76.3100 0137000 160.1100  -5.7208 13.68777558 01735 1735
1 11736U 001736A  05069.25074074  0.00000000  00000-0 2.55921e-02 0  17361736
2 11736  65.8400 236.2000 0052000  27.7700  -1.3657 13.80542551 01736 1736
1 11737U 001737A  05069.25145833  0.00000000  00000-0 2.43183e-03 0  17371737
2 11737   7.8300  58.4700 0021000 296.2000 -142.7346  1.01142470 01737 1737
1 11738U 001738A  05069.25216435  0.00000000  00000-0 2.84757e-03 0  17381738
2 11738   9.0800  52.0000 0001000 178.4800 -18.6463  0.99753694 01738 1738
1 11739U 001739A  05069.25289352  0.00000000  00000-0 2.11382e-02 0  17391739
2 11739  74.0000 236.6700 0032000 214.9500 168.0645 12.45288736 01739 1739
1 11740U 001740A  05069.25719907  0.00000000  00000-0 1.70876e-03 0  17401740
2 11740  82.9400 241.6400 0068000 283.3300  99.9837 13.75199499 01740 1740
1 11741U 001741A  05069.25790509  0.00000000  00000-0 1.73100e-03 0  17411741
2 11741  65.0500 233.0100 0039000 162.5200 -135.5280 13.90019355 01741 1741
1 11742U 001742A  05069.25863426  0.00000000  00000-0 2.79345e-03 0  17421742
2 11742  98.8000 250.1200 0164000 235.6700 147.2815 13.83566781 01742 1742
1 11743U 001743A  05069.25425926  0.00000000  00000-0 2.39769e-03 0  17431743
2 11743   6.8700  66.7100 0008000 307.7500 -162.2721  1.00058605 01743 1743
1 11744U 001744A  05069.25431713  0.00000000  00000-0 5.55537e-04 0  17441744
2 11744  66.0900 239.4900 0017000 263.6200 121.4941 12.87072867 01744 1744
1 11745U 001745A  05069.84239583  0.00000000  00000-0 2.25276e-03 0  17451745
2 11745   7.7200 154.3200 6786000 275.2600  75.1357  2.85399867 01745 1745
1 11746U 001746A  05069.843125  0.00000000  00000-0 2.81097e-02 0  17461746
2 11746  83.0600  77.1200 0099000  43.7100 110.7841 13.94884596 01746 1746
1 11747U 001747A  05069.84097222  0.00000000  00000-0 5.61743e-03 0  17471747
2 11747  73.7000  75.9700 0037000  86.1000  69.9910 12.41166285 01747 1747
1 11748U 001748A  05069.84168981  0.00000000  00000-0 5.71414e-03 0  17481748
2 11748  32.1200 204.7500 0491000 229.4900 164.3360  9.16735352 01748 1748
1 11749U 001749A  05069.84097222  0.00000000  00000-0 1.52339e-03 0  17491749
2 11749  74.0200  75.3000 0049000 218.8200 -62.0426 12.38242307 01749 1749
1 11750U 001750A  05069.84168981  0.00000000  00000-0 1.44591e-02 0  17501750
2 11750  82.5000  71.0800 0023000  17.0300 140.4325 11.96190173 01750 1750
1 11751U 001751A  05069.84219907  0.00000000  00000-0 5.09917e-03 0  17511751
2 11751  66.0900 239.4900 0017000 263.6200 121.7345 12.87072867 01751 1751
